start=new Date('2023-04-21T00:00:00.000Z').valueOf();
sats=[{"EPHEMERIS_TYPE":"0","BSTAR":"-0.00007697200000","MEAN_ELEMENT_THEORY":"SGP4","MEAN_MOTION_DOT":"-0.00001513","DECAY_DATE":null,"MEAN_ANOMALY":"273.8388","ELEMENT_SET_NO":"999","INCLINATION":"53.2155","CLASSIFICATION_TYPE":"U","NORAD_CAT_ID":"52458","ECCENTRICITY":"0.00015840","PERIAPSIS":"538.656","REF_FRAME":"TEME","TLE_LINE2":"2 52458  53.2155 120.4600 0001584  86.2785 273.8388 15.08837898 53008","SEMIMAJOR_AXIS":"6917.887","PERIOD":"95.438","CENTER_NAME":"EARTH","LAUNCH_DATE":"2022-05-06","OBJECT_NAME":"STARLINK-3898","SITE":"AFETR","RCS_SIZE":"LARGE","COUNTRY_CODE":"US","EPOCH":"2023-04-20T17:52:50.280096","APOAPSIS":"540.848","REV_AT_EPOCH":"5300","ARG_OF_PERICENTER":"86.2785","RA_OF_ASC_NODE":"120.4600","TIME_SYSTEM":"UTC","FILE":"3891109","GP_ID":"230462189","MEAN_MOTION":"15.08837898","OBJECT_TYPE":"PAYLOAD","OBJECT_ID":"2022-049H","MEAN_MOTION_DDOT":"0.0000000000000","TLE_LINE1":"1 52458U 22049H   23110.74502639 -.00001513  00000-0 -76972-4 0  9991"},{"TLE_LINE1":"1 52459U 22049J   23110.73026879  .00000698  00000-0  61937-4 0  9994","MEAN_MOTION_DDOT":"0.0000000000000","GP_ID":"230462440","FILE":"3891109","OBJECT_ID":"2022-049J","OBJECT_TYPE":"PAYLOAD","MEAN_MOTION":"15.08839368","TIME_SYSTEM":"UTC","REV_AT_EPOCH":"5313","RA_OF_ASC_NODE":"110.5274","ARG_OF_PERICENTER":"91.8714","APOAPSIS":"540.579","EPOCH":"2023-04-20T17:31:35.223456","COUNTRY_CODE":"US","SITE":"AFETR","RCS_SIZE":"LARGE","OBJECT_NAME":"STARLINK-3856","LAUNCH_DATE":"2022-05-06","PERIOD":"95.438","SEMIMAJOR_AXIS":"6917.882","CENTER_NAME":"EARTH","TLE_LINE2":"2 52459  53.2148 110.5274 0001202  91.8714 268.2415 15.08839368 53136","REF_FRAME":"TEME","PERIAPSIS":"538.916","ECCENTRICITY":"0.00012020","CLASSIFICATION_TYPE":"U","NORAD_CAT_ID":"52459","MEAN_ANOMALY":"268.2415","INCLINATION":"53.2148","ELEMENT_SET_NO":"999","MEAN_ELEMENT_THEORY":"SGP4","BSTAR":"0.00006193700000","DECAY_DATE":null,"MEAN_MOTION_DOT":"0.00000698","EPHEMERIS_TYPE":"0"},{"SITE":"AFETR","RCS_SIZE":"LARGE","OBJECT_NAME":"STARLINK-3865","APOAPSIS":"540.704","EPOCH":"2023-04-20T17:20:59.065440","COUNTRY_CODE":"US","TIME_SYSTEM":"UTC","REV_AT_EPOCH":"5313","ARG_OF_PERICENTER":"81.9475","RA_OF_ASC_NODE":"110.5137","MEAN_MOTION_DDOT":"0.0000000000000","TLE_LINE1":"1 52460U 22049K   23110.72290585 -.00000008  00000-0  17609-4 0  9995","FILE":"3891109","GP_ID":"230461189","MEAN_MOTION":"15.08838443","OBJECT_ID":"2022-049K","OBJECT_TYPE":"PAYLOAD","MEAN_ELEMENT_THEORY":"SGP4","BSTAR":"0.00001760900000","MEAN_MOTION_DOT":"-0.00000008","DECAY_DATE":null,"EPHEMERIS_TYPE":"0","CLASSIFICATION_TYPE":"U","NORAD_CAT_ID":"52460","MEAN_ANOMALY":"278.1673","ELEMENT_SET_NO":"999","INCLINATION":"53.2177","PERIAPSIS":"538.796","REF_FRAME":"TEME","TLE_LINE2":"2 52460  53.2177 110.5137 0001379  81.9475 278.1673 15.08838443 53136","ECCENTRICITY":"0.00013790","LAUNCH_DATE":"2022-05-06","SEMIMAJOR_AXIS":"6917.885","PERIOD":"95.438","CENTER_NAME":"EARTH"},{"RA_OF_ASC_NODE":"100.8375","ARG_OF_PERICENTER":"88.3379","REV_AT_EPOCH":"5326","TIME_SYSTEM":"UTC","OBJECT_ID":"2022-049L","OBJECT_TYPE":"PAYLOAD","MEAN_MOTION":"15.08836733","GP_ID":"230461439","FILE":"3891109","TLE_LINE1":"1 52461U 22049L   23110.66126933  .00000100  00000-0  24385-4 0  9995","MEAN_MOTION_DDOT":"0.0000000000000","OBJECT_NAME":"STARLINK-3900","RCS_SIZE":"LARGE","SITE":"AFETR","COUNTRY_CODE":"US","APOAPSIS":"540.552","EPOCH":"2023-04-20T15:52:13.670112","ECCENTRICITY":"0.00011520","TLE_LINE2":"2 52461  53.2156 100.8375 0001152  88.3379 271.7745 15.08836733 53266","PERIAPSIS":"538.958","REF_FRAME":"TEME","CENTER_NAME":"EARTH","PERIOD":"95.438","SEMIMAJOR_AXIS":"6917.890","LAUNCH_DATE":"2022-05-06","EPHEMERIS_TYPE":"0","DECAY_DATE":null,"MEAN_MOTION_DOT":"0.00000100","MEAN_ELEMENT_THEORY":"SGP4","BSTAR":"0.00002438500000","INCLINATION":"53.2156","ELEMENT_SET_NO":"999","MEAN_ANOMALY":"271.7745","NORAD_CAT_ID":"52461","CLASSIFICATION_TYPE":"U"},{"INCLINATION":"53.2167","ELEMENT_SET_NO":"999","MEAN_ANOMALY":"262.4852","NORAD_CAT_ID":"52462","CLASSIFICATION_TYPE":"U","EPHEMERIS_TYPE":"0","DECAY_DATE":null,"MEAN_MOTION_DOT":"0.00001770","BSTAR":"0.00012921000000","MEAN_ELEMENT_THEORY":"SGP4","CENTER_NAME":"EARTH","PERIOD":"95.437","SEMIMAJOR_AXIS":"6917.850","LAUNCH_DATE":"2022-05-06","ECCENTRICITY":"0.00013670","TLE_LINE2":"2 52462  53.2167 110.5653 0001367  97.6296 262.4852 15.08849891 53136","REF_FRAME":"TEME","PERIAPSIS":"538.769","COUNTRY_CODE":"US","APOAPSIS":"540.661","EPOCH":"2023-04-20T17:22:21.028800","OBJECT_NAME":"STARLINK-3903","RCS_SIZE":"LARGE","SITE":"AFETR","OBJECT_ID":"2022-049M","OBJECT_TYPE":"PAYLOAD","MEAN_MOTION":"15.08849891","GP_ID":"230462689","FILE":"3891109","TLE_LINE1":"1 52462U 22049M   23110.72385450  .00001770  00000-0  12921-3 0  9990","MEAN_MOTION_DDOT":"0.0000000000000","RA_OF_ASC_NODE":"110.5653","ARG_OF_PERICENTER":"97.6296","REV_AT_EPOCH":"5313","TIME_SYSTEM":"UTC"},{"SITE":"AFETR","RCS_SIZE":"LARGE","OBJECT_NAME":"STARLINK-3885","EPOCH":"2023-04-20T09:25:23.238912","APOAPSIS":"540.685","COUNTRY_CODE":"US","TIME_SYSTEM":"UTC","REV_AT_EPOCH":"5322","ARG_OF_PERICENTER":"86.0649","RA_OF_ASC_NODE":"102.0451","MEAN_MOTION_DDOT":"0.0000000000000","TLE_LINE1":"1 52463U 22049N   23110.39263008 -.00000111  00000-0  11132-4 0  9991","FILE":"3890827","GP_ID":"230428664","MEAN_MOTION":"15.08837549","OBJECT_TYPE":"PAYLOAD","OBJECT_ID":"2022-049N","BSTAR":"0.00001113200000","MEAN_ELEMENT_THEORY":"SGP4","MEAN_MOTION_DOT":"-0.00000111","DECAY_DATE":null,"EPHEMERIS_TYPE":"0","CLASSIFICATION_TYPE":"U","NORAD_CAT_ID":"52463","MEAN_ANOMALY":"274.0498","ELEMENT_SET_NO":"999","INCLINATION":"53.2172","REF_FRAME":"TEME","PERIAPSIS":"538.821","TLE_LINE2":"2 52463  53.2172 102.0451 0001347  86.0649 274.0498 15.08837549 53229","ECCENTRICITY":"0.00013470","LAUNCH_DATE":"2022-05-06","SEMIMAJOR_AXIS":"6917.888","PERIOD":"95.438","CENTER_NAME":"EARTH"},{"SITE":"AFETR","RCS_SIZE":"LARGE","OBJECT_NAME":"STARLINK-3904","APOAPSIS":"540.586","EPOCH":"2023-04-20T17:26:17.604960","COUNTRY_CODE":"US","TIME_SYSTEM":"UTC","REV_AT_EPOCH":"5313","RA_OF_ASC_NODE":"110.5418","ARG_OF_PERICENTER":"97.6752","TLE_LINE1":"1 52464U 22049P   23110.72659265 -.00000115  00000-0  10838-4 0  9999","MEAN_MOTION_DDOT":"0.0000000000000","GP_ID":"230461689","FILE":"3891109","OBJECT_TYPE":"PAYLOAD","OBJECT_ID":"2022-049P","MEAN_MOTION":"15.08836699","MEAN_ELEMENT_THEORY":"SGP4","BSTAR":"0.00001083800000","DECAY_DATE":null,"MEAN_MOTION_DOT":"-0.00000115","EPHEMERIS_TYPE":"0","CLASSIFICATION_TYPE":"U","NORAD_CAT_ID":"52464","MEAN_ANOMALY":"262.4376","INCLINATION":"53.2156","ELEMENT_SET_NO":"999","TLE_LINE2":"2 52464  53.2156 110.5418 0001201  97.6752 262.4376 15.08836699 53132","PERIAPSIS":"538.925","REF_FRAME":"TEME","ECCENTRICITY":"0.00012010","LAUNCH_DATE":"2022-05-06","PERIOD":"95.438","SEMIMAJOR_AXIS":"6917.890","CENTER_NAME":"EARTH"},{"CENTER_NAME":"EARTH","PERIOD":"95.438","SEMIMAJOR_AXIS":"6917.882","LAUNCH_DATE":"2022-05-06","ECCENTRICITY":"0.00014030","TLE_LINE2":"2 52465  53.2156 102.0573 0001403  87.3987 272.7166 15.08839627 53383","PERIAPSIS":"538.776","REF_FRAME":"TEME","INCLINATION":"53.2156","ELEMENT_SET_NO":"999","MEAN_ANOMALY":"272.7166","NORAD_CAT_ID":"52465","CLASSIFICATION_TYPE":"U","EPHEMERIS_TYPE":"0","DECAY_DATE":null,"MEAN_MOTION_DOT":"0.00000345","MEAN_ELEMENT_THEORY":"SGP4","BSTAR":"0.00003975200000","OBJECT_TYPE":"PAYLOAD","OBJECT_ID":"2022-049Q","MEAN_MOTION":"15.08839627","GP_ID":"230437493","FILE":"3891033","TLE_LINE1":"1 52465U 22049Q   23110.38894713  .00000345  00000-0  39752-4 0  9991","MEAN_MOTION_DDOT":"0.0000000000000","RA_OF_ASC_NODE":"102.0573","ARG_OF_PERICENTER":"87.3987","REV_AT_EPOCH":"5338","TIME_SYSTEM":"UTC","COUNTRY_CODE":"US","EPOCH":"2023-04-20T09:20:05.032032","APOAPSIS":"540.717","OBJECT_NAME":"STARLINK-3863","RCS_SIZE":"LARGE","SITE":"AFETR"},{"REV_AT_EPOCH":"5308","ARG_OF_PERICENTER":"95.2825","RA_OF_ASC_NODE":"112.0795","TIME_SYSTEM":"UTC","FILE":"3890827","GP_ID":"230428914","MEAN_MOTION":"15.08836301","OBJECT_TYPE":"PAYLOAD","OBJECT_ID":"2022-049R","MEAN_MOTION_DDOT":"0.0000000000000","TLE_LINE1":"1 52466U 22049R   23110.38434812  .00000098  00000-0  24281-4 0  9998","OBJECT_NAME":"STARLINK-3840","SITE":"AFETR","RCS_SIZE":"LARGE","COUNTRY_CODE":"US","APOAPSIS":"540.744","EPOCH":"2023-04-20T09:13:27.677568","ECCENTRICITY":"0.00014270","REF_FRAME":"TEME","PERIAPSIS":"538.770","TLE_LINE2":"2 52466  53.2158 112.0795 0001427  95.2825 264.8330 15.08836301 53086","SEMIMAJOR_AXIS":"6917.892","PERIOD":"95.438","CENTER_NAME":"EARTH","LAUNCH_DATE":"2022-05-06","EPHEMERIS_TYPE":"0","MEAN_ELEMENT_THEORY":"SGP4","BSTAR":"0.00002428100000","MEAN_MOTION_DOT":"0.00000098","DECAY_DATE":null,"MEAN_ANOMALY":"264.8330","ELEMENT_SET_NO":"999","INCLINATION":"53.2158","CLASSIFICATION_TYPE":"U","NORAD_CAT_ID":"52466"},{"EPHEMERIS_TYPE":"0","BSTAR":"0.00003960100000","MEAN_ELEMENT_THEORY":"SGP4","DECAY_DATE":null,"MEAN_MOTION_DOT":"0.00000342","MEAN_ANOMALY":"277.4522","INCLINATION":"53.2168","ELEMENT_SET_NO":"999","CLASSIFICATION_TYPE":"U","NORAD_CAT_ID":"52467","ECCENTRICITY":"0.00014810","TLE_LINE2":"2 52467  53.2168 110.5740 0001481  82.6638 277.4522 15.08836571 53131","PERIAPSIS":"538.731","REF_FRAME":"TEME","PERIOD":"95.438","SEMIMAJOR_AXIS":"6917.891","CENTER_NAME":"EARTH","LAUNCH_DATE":"2022-05-06","OBJECT_NAME":"STARLINK-3873","SITE":"AFETR","RCS_SIZE":"LARGE","COUNTRY_CODE":"US","EPOCH":"2023-04-20T17:15:41.693184","APOAPSIS":"540.780","REV_AT_EPOCH":"5313","RA_OF_ASC_NODE":"110.5740","ARG_OF_PERICENTER":"82.6638","TIME_SYSTEM":"UTC","GP_ID":"230462441","FILE":"3891109","OBJECT_TYPE":"PAYLOAD","OBJECT_ID":"2022-049S","MEAN_MOTION":"15.08836571","TLE_LINE1":"1 52467U 22049S   23110.71923256  .00000342  00000-0  39601-4 0  9995","MEAN_MOTION_DDOT":"0.0000000000000"}];
